{
"type": "FeatureCollection",
"name": "CH",
"crs": { "type": "name", "properties": { "name": "urn:ogc:def:crs:OGC:1.3:CRS84" } },
"features": [
{ "type": "Feature", "properties": { "gridcode": 1, "Shape_Leng": 265805.07475799997, "Shape_Area": 456635305.39, "Ket": "2001 - 2500", "Klasifikas": "Sedang", "bobotCH": 3 }, "geometry": { "type": "MultiPolygon", "coordinates": [ [ [ [ 105.089354991141334, -5.774052714044923 ], [ 105.088197328415404, -5.778175766629221 ], [ 105.085231937857941, -5.775210375920843 ], [ 105.089354991141334, -5.774052714044923 ] ] ], [ [ [ 104.85872155454517, -5.843041289992273 ], [ 104.852587982535809, -5.84380420745996 ], [ 104.843994293703076, -5.840183022268868 ], [ 104.834223282316017, -5.833045506167053 ], [ 104.827085766259842, -5.830037905961854 ], [ 104.820696461352682, -5.826282095110249 ], [ 104.813558945057409, -5.823274495786489 ], [ 104.807972184995663, -5.810016255717025 ], [ 104.803371515568358, -5.806332066277947 ], [ 104.803906460410644, -5.802031403998138 ], [ 104.796650417917604, -5.796220851458504 ], [ 104.788383206174089, -5.780816124884941 ], [ 104.801910028765377, -5.77067100813523 ], [ 104.806732839284166, -5.776693639006631 ], [ 104.816940650544623, -5.782694029927878 ], [ 104.834254191968427, -5.789094739750355 ], [ 104.853952357541658, -5.804868824510008 ], [ 104.85872155454517, -5.843041289992273 ] ] ], [ [ [ 105.065683052542681, -5.76052589186428 ], [ 105.06399220016101, -5.768386180022254 ], [ 105.062301347365192, -5.76052589251731 ], [ 105.065683052542681, -5.76052589186428 ] ] ], [ [ [ 104.692314231593954, -5.850450742357554 ], [ 104.657168071143971, -5.853213135477211 ], [ 104.64158865049356, -5.843068019182033 ], [ 104.636206462216208, -5.8416868230388 ], [ 104.642152284995674, -5.827558078393519 ], [ 104.653998909172557, -5.821967190928032 ], [ 104.647977956138618, -5.816388481240835 ], [ 104.641472419808053, -5.809367221603094 ], [ 104.619409830669071, -5.802382185792172 ], [ 104.599007701924691, -5.770671008793394 ], [ 104.611518557098847, -5.755609735483139 ], [ 104.644328855699712, -5.759404401442302 ], [ 104.659541008957973, -5.777717656045014 ], [ 104.668176261671547, -5.782663379412128 ], [ 104.676786927514371, -5.784197830149583 ], [ 104.678168149586526, -5.78619833914548 ], [ 104.682169115445006, -5.788960732582139 ], [ 104.685074210601158, -5.800281055453245 ], [ 104.691694971293018, -5.809870276668018 ], [ 104.69684338273008, -5.813424896522725 ], [ 104.701840087635034, -5.826778803842009 ], [ 104.709037641030392, -5.831748264314832 ], [ 104.710603981244574, -5.841686822821401 ], [ 104.692314231593954, -5.850450742357554 ] ] ], [ [ [ 105.01718151378013, -5.749639427726151 ], [ 105.01833917650147, -5.753762481572954 ], [ 105.014216123836746, -5.752604819143454 ], [ 105.01718151378013, -5.749639427726151 ] ] ], [ [ [ 105.089354991141334, -5.774052714044923 ], [ 105.089354990869083, -5.757144186326878 ], [ 105.096261077608162, -5.747141746141435 ], [ 105.106263518209843, -5.740235659926269 ], [ 105.111746714311835, -5.749745983719452 ], [ 105.135328609952865, -5.770062945131838 ], [ 105.134695107369424, -5.777946917845059 ], [ 105.144169104618442, -5.788943394630078 ], [ 105.165317612274379, -5.792777844365939 ], [ 105.195752909095347, -5.796266879389619 ], [ 105.189120151933423, -5.803205165774627 ], [ 105.170433824700396, -5.801703738627984 ], [ 105.161730020062109, -5.806559831904553 ], [ 105.155188750480292, -5.806034278922001 ], [ 105.151937646284836, -5.809807839711234 ], [ 105.135133765478642, -5.795908048084879 ], [ 105.128118852441446, -5.792777844374855 ], [ 105.119064987988551, -5.772487612537874 ], [ 105.109875568633285, -5.778918404776754 ], [ 105.095307857577552, -5.795827189828296 ], [ 105.088786041204372, -5.796351246752725 ], [ 105.094553299999404, -5.786014433773609 ], [ 105.097683503381688, -5.778999520776161 ], [ 105.111210324963409, -5.772963577441812 ], [ 105.103046728146808, -5.771066269994041 ], [ 105.089354991141334, -5.774052714044923 ] ] ], [ [ [ 105.015086420961012, -5.604838491641769 ], [ 105.029875654885274, -5.620800145317497 ], [ 105.047862327808929, -5.620087229357036 ], [ 105.063798800686769, -5.637287042689032 ], [ 105.077121283626667, -5.649630970048049 ], [ 105.079209874841638, -5.699655194463949 ], [ 105.074692127043676, -5.701900858239888 ], [ 105.063437388802328, -5.704172941716124 ], [ 105.053339074782983, -5.712972052367624 ], [ 105.052156230962609, -5.746999070399552 ], [ 105.050723175703808, -5.749237561679959 ], [ 105.047083672682049, -5.748214731948828 ], [ 105.043701967191566, -5.749165114217355 ], [ 105.04032026197801, -5.748214732011515 ], [ 105.036938556721026, -5.749165114116031 ], [ 105.033556850719677, -5.748214731590484 ], [ 105.02991734820209, -5.749237561613717 ], [ 105.027164345902492, -5.744937311226409 ], [ 105.021511073683016, -5.741318139388315 ], [ 105.036567650236648, -5.731679123077188 ], [ 105.021143314624808, -5.722328658491447 ], [ 105.013874990637333, -5.733682056921949 ], [ 105.010255818975153, -5.728028784240397 ], [ 105.002750596365757, -5.72538889110433 ], [ 104.999481999176098, -5.720283204777559 ], [ 104.987611973743313, -5.723618985815065 ], [ 104.990165694256333, -5.714531839028473 ], [ 104.972315246998292, -5.711862069622907 ], [ 104.970995300459279, -5.70980031071975 ], [ 104.989289307262524, -5.693454799153963 ], [ 104.993045066707552, -5.641495856477348 ], [ 104.994667238068388, -5.584677209094873 ], [ 104.999933196018176, -5.589556367823065 ], [ 105.008065110227477, -5.598332981380316 ], [ 105.015086420961012, -5.604838491641769 ] ] ], [ [ [ 104.526154424504412, -5.472168835561231 ], [ 104.527991887458043, -5.476462634771409 ], [ 104.520215025951657, -5.475091939620946 ], [ 104.526154424504412, -5.472168835561231 ] ] ], [ [ [ 104.893216074932255, -5.510279689554082 ], [ 104.892058413127401, -5.506156636843477 ], [ 104.889093021717784, -5.509122027632961 ], [ 104.893216074932255, -5.510279689554082 ], [ 104.894352116783793, -5.526052175348381 ], [ 104.896597780862436, -5.530569922066255 ], [ 104.882672033339588, -5.540964166449614 ], [ 104.862902297421741, -5.538042688415912 ], [ 104.854544165780695, -5.515134544692131 ], [ 104.846177778873212, -5.503849980488702 ], [ 104.813528294335597, -5.49527971876886 ], [ 104.80910884585235, -5.489554049527722 ], [ 104.802674132023597, -5.484587298877024 ], [ 104.794485354368192, -5.455180533643995 ], [ 104.79958603454962, -5.420664495697372 ], [ 104.794255524843791, -5.384593185650437 ], [ 104.800615830858874, -5.362779467048105 ], [ 104.817693144083961, -5.349597957980986 ], [ 104.841017344098063, -5.343102973716382 ], [ 104.850727053699543, -5.339285861496529 ], [ 104.856017315318354, -5.337812712238716 ], [ 104.868970233789241, -5.339395770882162 ], [ 104.871504345278211, -5.356544112640577 ], [ 104.864689282335533, -5.367842221234789 ], [ 104.867635580771335, -5.376920028466528 ], [ 104.882691642055548, -5.385924794343434 ], [ 104.896210310705825, -5.410072362343829 ], [ 104.905327488552246, -5.417109669191636 ], [ 104.90477659955863, -5.420837615572364 ], [ 104.911597752085243, -5.426102670833847 ], [ 104.907791991392401, -5.432463853856853 ], [ 104.889057778424558, -5.429695371110367 ], [ 104.887774829984451, -5.438377116951884 ], [ 104.898807994954481, -5.436746663144714 ], [ 104.904834340993219, -5.444554136597008 ], [ 104.917386217970886, -5.448049390103652 ], [ 104.911597751238503, -5.457645551949662 ], [ 104.90865145354222, -5.471607780085741 ], [ 104.904834340779971, -5.484699195683884 ], [ 104.900849939070156, -5.508153920167294 ], [ 104.893216074932255, -5.510279689554082 ] ] ], [ [ [ 104.532660721382172, -5.221103535710153 ], [ 104.527991887589621, -5.23297984325368 ], [ 104.516373622009525, -5.229744555079057 ], [ 104.52143418323061, -5.214598166985605 ], [ 104.532660721382172, -5.221103535710153 ] ] ], [ [ [ 104.738423792697631, -5.224638521393341 ], [ 104.730894214432581, -5.236361548536674 ], [ 104.712512537791071, -5.233238944039503 ], [ 104.716888641201692, -5.214950948139386 ], [ 104.731295926118008, -5.212821889059014 ], [ 104.738423792697631, -5.224638521393341 ] ] ], [ [ [ 104.780483754187472, -5.231843802092603 ], [ 104.778238090591287, -5.23636154906084 ], [ 104.76675450294637, -5.234551704661248 ], [ 104.763330072175279, -5.219276108992275 ], [ 104.773408984370093, -5.212622659187925 ], [ 104.781619795758587, -5.216071316474776 ], [ 104.780483754187472, -5.231843802092603 ] ] ], [ [ [ 104.536663855154615, -5.180781105879127 ], [ 104.531373593415921, -5.189017672536089 ], [ 104.51383308632785, -5.186037969124197 ], [ 104.511368170614745, -5.16935791755663 ], [ 104.51801373823227, -5.160748238788647 ], [ 104.531775305132996, -5.158714608401652 ], [ 104.539610153281956, -5.171703306207381 ], [ 104.536663855154615, -5.180781105879127 ] ] ] ] } },
{ "type": "Feature", "properties": { "gridcode": 2, "Shape_Leng": 443799.984535, "Shape_Area": 907008443.31299996, "Ket": "> 3000", "Klasifikas": "Sangat Basah", "bobotCH": 5 }, "geometry": { "type": "MultiPolygon", "coordinates": [ [ [ [ 104.709069530736002, -5.8469157830595 ], [ 104.695741732522734, -5.87668517289707 ], [ 104.714005682263362, -5.891856355153469 ], [ 104.727956275129088, -5.913994615703454 ], [ 104.730049148666282, -5.934527320219592 ], [ 104.685084788665705, -5.931458418258828 ], [ 104.67137767410054, -5.926307943049339 ], [ 104.672560156570825, -5.937909025638517 ], [ 104.660040709927273, -5.934462354829112 ], [ 104.661741598652199, -5.917775194720492 ], [ 104.661396905855341, -5.914393489583212 ], [ 104.661752718644451, -5.910902648866229 ], [ 104.658004080787791, -5.904357509114433 ], [ 104.658493952271144, -5.899551365071401 ], [ 104.644504323677438, -5.877351131692197 ], [ 104.640338390108695, -5.853973730675849 ], [ 104.634237816661184, -5.843322101809884 ], [ 104.636206462216208, -5.8416868230388 ], [ 104.64158865049356, -5.843068019182033 ], [ 104.657168071143971, -5.853213135477211 ], [ 104.692314231593954, -5.850450742357554 ], [ 104.710603981244574, -5.841686822821401 ], [ 104.709069530736002, -5.8469157830595 ] ] ], [ [ [ 104.801910028765377, -5.77067100813523 ], [ 104.788383206174089, -5.780816124884941 ], [ 104.780483754456071, -5.779221403774702 ], [ 104.783033810089108, -5.75951364079518 ], [ 104.800773986617443, -5.768425344744024 ], [ 104.801910028765377, -5.77067100813523 ] ] ], [ [ [ 104.644534974076166, -5.742052262754952 ], [ 104.658313297976292, -5.758709288178679 ], [ 104.661443501579683, -5.765724201487189 ], [ 104.676786927514371, -5.784197830149583 ], [ 104.668176261671547, -5.782663379412128 ], [ 104.659541008957973, -5.777717656045014 ], [ 104.644328855699712, -5.759404401442302 ], [ 104.611518557098847, -5.755609735483139 ], [ 104.599007701924691, -5.770671008793394 ], [ 104.593294263163116, -5.769325364504787 ], [ 104.588302562852505, -5.753299364546524 ], [ 104.59393514343158, -5.75154499108563 ], [ 104.60449711692425, -5.754834744073444 ], [ 104.614807638992872, -5.742104999096635 ], [ 104.611461589484833, -5.731362449468948 ], [ 104.618008664507144, -5.722037836091707 ], [ 104.620587204424794, -5.714471311809218 ], [ 104.622679639724751, -5.713182016082661 ], [ 104.6497332831281, -5.713182015772213 ], [ 104.649733283440085, -5.709800310584393 ], [ 104.65401537007088, -5.713489556557929 ], [ 104.655096379266894, -5.726942950104021 ], [ 104.641404770838449, -5.733052373144786 ], [ 104.644534974076166, -5.742052262754952 ] ] ], [ [ [ 105.079209874841638, -5.699655194463949 ], [ 105.081997293889032, -5.710516993267791 ], [ 105.096716918406884, -5.707217177694871 ], [ 105.105811392350915, -5.721183173251249 ], [ 105.103183934505253, -5.732903557155756 ], [ 105.106263518209843, -5.740235659926269 ], [ 105.096261077608162, -5.747141746141435 ], [ 105.089354990869083, -5.757144186326878 ], [ 105.079801889488934, -5.752680827180135 ], [ 105.067515498161072, -5.757311991931937 ], [ 105.065683052542681, -5.76052589186428 ], [ 105.062301347365192, -5.76052589251731 ], [ 105.060055683282712, -5.759389850431184 ], [ 105.057218933092287, -5.749560220757863 ], [ 105.052156230962609, -5.746999070399552 ], [ 105.053339074782983, -5.712972052367624 ], [ 105.063437388802328, -5.704172941716124 ], [ 105.074692127043676, -5.701900858239888 ], [ 105.079209874841638, -5.699655194463949 ] ] ], [ [ [ 104.580069537737472, -5.466998932271891 ], [ 104.582099174854378, -5.483226046488196 ], [ 104.563686847890907, -5.481428638237122 ], [ 104.567470032800173, -5.468566124292908 ], [ 104.580069537737472, -5.466998932271891 ] ] ], [ [ [ 104.736841740244159, -5.473877541444569 ], [ 104.73089421368222, -5.483226045958655 ], [ 104.719656245522884, -5.481270352594565 ], [ 104.718504698621189, -5.472012458783905 ], [ 104.730751099725907, -5.464813718326528 ], [ 104.736841740244159, -5.473877541444569 ] ] ], [ [ [ 104.538552106043468, -5.455927840555105 ], [ 104.549847221881308, -5.476172329295404 ], [ 104.546242240363043, -5.486388112761844 ], [ 104.536320400046037, -5.494936263909845 ], [ 104.534755298365042, -5.496752867534376 ], [ 104.510519390304978, -5.494280703044142 ], [ 104.502754848229557, -5.473137149010249 ], [ 104.51172242225762, -5.458083642231106 ], [ 104.538552106043468, -5.455927840555105 ] ], [ [ 104.520215025951657, -5.475091939620946 ], [ 104.527991887458043, -5.476462634771409 ], [ 104.526154424504412, -5.472168835561231 ], [ 104.520215025951657, -5.475091939620946 ] ] ], [ [ [ 104.854544165780695, -5.515134544692131 ], [ 104.862902297421741, -5.538042688415912 ], [ 104.882672033339588, -5.540964166449614 ], [ 104.896597780862436, -5.530569922066255 ], [ 104.890862359499835, -5.553663622540907 ], [ 104.900598746034319, -5.560386010468275 ], [ 104.904742388523303, -5.566387485599448 ], [ 104.906742897161109, -5.567768682233951 ], [ 104.909379385085501, -5.588847580531751 ], [ 104.930557975852864, -5.592944420227666 ], [ 104.94322022690686, -5.585501170038472 ], [ 104.947323362421955, -5.571150387329125 ], [ 104.965735689816853, -5.576409998122507 ], [ 104.992722664772614, -5.582248878539222 ], [ 104.994667238068388, -5.584677209094873 ], [ 104.993045066707552, -5.641495856477348 ], [ 104.989289307262524, -5.693454799153963 ], [ 104.970995300459279, -5.70980031071975 ], [ 104.969082254751058, -5.704823317348043 ], [ 104.969725096692585, -5.699655194009856 ], [ 104.968968526819566, -5.693572809553844 ], [ 104.958563755862372, -5.694867058878653 ], [ 104.960095523048366, -5.707181676336777 ], [ 104.957325338312941, -5.711304110240775 ], [ 104.945819562370076, -5.704540699789775 ], [ 104.935300340233809, -5.701533099182714 ], [ 104.932274112847637, -5.69435136197662 ], [ 104.928723982072114, -5.694792960665238 ], [ 104.924032908399951, -5.694209459615851 ], [ 104.918765918617765, -5.687632172277727 ], [ 104.915010107908884, -5.684624572387031 ], [ 104.912002507879976, -5.677487056626688 ], [ 104.904864991418691, -5.674479455881801 ], [ 104.901790620490161, -5.656813069113151 ], [ 104.89847568610854, -5.660952634441679 ], [ 104.882927818875004, -5.663960234198828 ], [ 104.872733681125339, -5.651230128201071 ], [ 104.855185614529304, -5.640571532946625 ], [ 104.842017831104698, -5.63502285457781 ], [ 104.827459871595153, -5.623379768990852 ], [ 104.816940649764902, -5.620372169412795 ], [ 104.813933049744264, -5.61661635847438 ], [ 104.786198844063804, -5.609247051711882 ], [ 104.768557225526692, -5.598876852514007 ], [ 104.760199868492677, -5.579043493562431 ], [ 104.754566151902509, -5.574532092643 ], [ 104.756702267195934, -5.567437199374281 ], [ 104.771726181336888, -5.554493362166708 ], [ 104.776421486754728, -5.549043551099813 ], [ 104.791340805497612, -5.536189860828951 ], [ 104.789545203101383, -5.513843158168095 ], [ 104.756436110977958, -5.499069276067907 ], [ 104.738771787944913, -5.470112830287763 ], [ 104.740842963868545, -5.444336433807572 ], [ 104.739212613145511, -5.424046200763942 ], [ 104.739891936468453, -5.415591937365157 ], [ 104.739020425877669, -5.404745902657614 ], [ 104.743999638369459, -5.377283503427152 ], [ 104.742154241800549, -5.354316818366345 ], [ 104.760023084405191, -5.325688114718691 ], [ 104.759502845561045, -5.319213331796919 ], [ 104.759855433175133, -5.314825567660124 ], [ 104.785738566299869, -5.303276033842981 ], [ 104.802282121158512, -5.290319825703284 ], [ 104.805291733716317, -5.280323719852873 ], [ 104.807200289853171, -5.281796869060376 ], [ 104.81014658810625, -5.299140803460367 ], [ 104.817345406528446, -5.302087101227925 ], [ 104.823673409854393, -5.312667624372422 ], [ 104.854544166354174, -5.335904155606982 ], [ 104.856017315318354, -5.337812712238716 ], [ 104.850727053699543, -5.339285861496529 ], [ 104.841017344098063, -5.343102973716382 ], [ 104.817693144083961, -5.349597957980986 ], [ 104.800615830858874, -5.362779467048105 ], [ 104.794255524843791, -5.384593185650437 ], [ 104.79958603454962, -5.420664495697372 ], [ 104.794485354368192, -5.455180533643995 ], [ 104.802674132023597, -5.484587298877024 ], [ 104.80910884585235, -5.489554049527722 ], [ 104.813528294335597, -5.49527971876886 ], [ 104.846177778873212, -5.503849980488702 ], [ 104.854544165780695, -5.515134544692131 ] ], [ [ 104.817559910613596, -5.528954767993 ], [ 104.828963671648253, -5.530569922154638 ], [ 104.832254043949689, -5.523378277264317 ], [ 104.820948633500549, -5.519166186956109 ], [ 104.817559910613596, -5.528954767993 ] ], [ [ 104.868254893177749, -5.633450218939958 ], [ 104.876307547673704, -5.635402790692593 ], [ 104.877627494277462, -5.633341031806292 ], [ 104.881751012125349, -5.630701138402158 ], [ 104.884390905670699, -5.621504185724534 ], [ 104.875057417129923, -5.615529027428709 ], [ 104.864842485475876, -5.621307535002989 ], [ 104.868254893177749, -5.633450218939958 ] ] ], [ [ [ 104.43481033527479, -5.21997151902848 ], [ 104.429922430309091, -5.232979843075436 ], [ 104.414861157460621, -5.230295870369942 ], [ 104.420056757201706, -5.214536865343769 ], [ 104.43481033527479, -5.21997151902848 ] ] ], [ [ [ 104.486270736791113, -5.220938387854396 ], [ 104.480648011436244, -5.232979843417475 ], [ 104.469164424061617, -5.231169999367097 ], [ 104.465739980182008, -5.2158944028204 ], [ 104.481191482909111, -5.21130840103717 ], [ 104.486270736791113, -5.220938387854396 ] ] ], [ [ [ 104.600885607651932, -5.133032483382357 ], [ 104.607461965849069, -5.136898242357704 ], [ 104.61646606033699, -5.131605390904686 ], [ 104.631133903489953, -5.133429851464136 ], [ 104.634515609357322, -5.133009214625313 ], [ 104.642969872543176, -5.134060799332643 ], [ 104.652303464266112, -5.132899840532637 ], [ 104.667015915725585, -5.144681403402958 ], [ 104.673407544073996, -5.152663068276771 ], [ 104.693695454206775, -5.155200618375146 ], [ 104.695260556349908, -5.16039893366609 ], [ 104.698893763782067, -5.170292535020741 ], [ 104.703646835563262, -5.186079423840249 ], [ 104.717543067486105, -5.193832620707979 ], [ 104.725821656343342, -5.194497818585059 ], [ 104.744623620647232, -5.192987059101457 ], [ 104.778238089915973, -5.19578108331262 ], [ 104.786320260911879, -5.212945821415908 ], [ 104.781619795758587, -5.216071316474776 ], [ 104.773408984370093, -5.212622659187925 ], [ 104.763330072175279, -5.219276108992275 ], [ 104.76675450294637, -5.234551704661248 ], [ 104.778238090591287, -5.23636154906084 ], [ 104.790002850640988, -5.238658259159206 ], [ 104.785001500838945, -5.253270075949483 ], [ 104.74010445431918, -5.255728102468576 ], [ 104.718002494267949, -5.254852063777196 ], [ 104.698832487339615, -5.248133055740237 ], [ 104.665195313056259, -5.241711073658155 ], [ 104.646156011350044, -5.228609751435465 ], [ 104.633628463189737, -5.235238704026119 ], [ 104.616071572716834, -5.234542816842981 ], [ 104.605682488372437, -5.201728403429366 ], [ 104.572541352357916, -5.195401121557447 ], [ 104.553979021376648, -5.201907147729061 ], [ 104.540021256560934, -5.231482376949099 ], [ 104.532311617324041, -5.238625737687006 ], [ 104.512314334496125, -5.237833111044615 ], [ 104.499311853459929, -5.217697706418329 ], [ 104.494562729273994, -5.213297402933085 ], [ 104.488826378853474, -5.189215142280262 ], [ 104.489573067660032, -5.170376554275952 ], [ 104.478756406120937, -5.149934964141274 ], [ 104.471894270339632, -5.150206951037187 ], [ 104.467121190100187, -5.145055502235818 ], [ 104.481257300350762, -5.142595469294904 ], [ 104.49380813294276, -5.126922367122393 ], [ 104.502269672350053, -5.125869879833163 ], [ 104.515830395465528, -5.13577568790682 ], [ 104.519526877997947, -5.118690802062002 ], [ 104.53275187415592, -5.10810038469047 ], [ 104.538085893857314, -5.089444413056072 ], [ 104.565975984975339, -5.103773194436159 ], [ 104.574961658714187, -5.114994254940055 ], [ 104.580595374450027, -5.119505661548942 ], [ 104.586610574532386, -5.127017274008425 ], [ 104.600885607651932, -5.133032483382357 ] ], [ [ 104.51383308632785, -5.186037969124197 ], [ 104.531373593415921, -5.189017672536089 ], [ 104.536663855154615, -5.180781105879127 ], [ 104.539610153281956, -5.171703306207381 ], [ 104.531775305132996, -5.158714608401652 ], [ 104.51801373823227, -5.160748238788647 ], [ 104.511368170614745, -5.16935791755663 ], [ 104.51383308632785, -5.186037969124197 ] ], [ [ 104.516373622009525, -5.229744555079057 ], [ 104.527991887589621, -5.23297984325368 ], [ 104.532660721382172, -5.221103535710153 ], [ 104.52143418323061, -5.214598166985605 ], [ 104.516373622009525, -5.229744555079057 ] ], [ [ 104.716888641201692, -5.214950948139386 ], [ 104.712512537791071, -5.233238944039503 ], [ 104.730894214432581, -5.236361548536674 ], [ 104.738423792697631, -5.224638521393341 ], [ 104.731295926118008, -5.212821889059014 ], [ 104.716888641201692, -5.214950948139386 ] ] ] ] } },
{ "type": "Feature", "properties": { "gridcode": 3, "Shape_Leng": 434480.77409700002, "Shape_Area": 755559006.49199998, "Ket": "2501 - 3000", "Klasifikas": "Basah", "bobotCH": 4 }, "geometry": { "type": "MultiPolygon", "coordinates": [ [ [ [ 104.877627494277462, -5.633341031806292 ], [ 104.876307547673704, -5.635402790692593 ], [ 104.868254893177749, -5.633450218939958 ], [ 104.864842485475876, -5.621307535002989 ], [ 104.875057417129923, -5.615529027428709 ], [ 104.884390905670699, -5.621504185724534 ], [ 104.881751012125349, -5.630701138402158 ], [ 104.877627494277462, -5.633341031806292 ] ] ], [ [ [ 104.906742897161109, -5.567768682233951 ], [ 104.916959893529125, -5.569997214347262 ], [ 104.925344392217241, -5.569323515567935 ], [ 104.947323362421955, -5.571150387329125 ], [ 104.94322022690686, -5.585501170038472 ], [ 104.930557975852864, -5.592944420227666 ], [ 104.909379385085501, -5.588847580531751 ], [ 104.906742897161109, -5.567768682233951 ] ] ], [ [ [ 104.832254043949689, -5.523378277264317 ], [ 104.828963671648253, -5.530569922154638 ], [ 104.817559910613596, -5.528954767993 ], [ 104.820948633500549, -5.519166186956109 ], [ 104.832254043949689, -5.523378277264317 ] ] ], [ [ [ 104.527467469949812, -5.40726342462627 ], [ 104.54404902838904, -5.415911216727092 ], [ 104.557548218441895, -5.43932497016812 ], [ 104.570011704169573, -5.446278788178611 ], [ 104.590679189708553, -5.45097409299332 ], [ 104.603954508776951, -5.454607300945566 ], [ 104.640047439256264, -5.458744905169386 ], [ 104.649325121567301, -5.480774856572193 ], [ 104.65154988755026, -5.508463086131604 ], [ 104.65311498915726, -5.510279689527247 ], [ 104.634641360207866, -5.505081380804228 ], [ 104.620863036527197, -5.501951176644298 ], [ 104.617497611178621, -5.498044924533665 ], [ 104.609152818081512, -5.498715449574185 ], [ 104.598450439713901, -5.497855498177745 ], [ 104.569185111289627, -5.508602562941054 ], [ 104.554157379441435, -5.516987087616627 ], [ 104.543586841371479, -5.529256322398719 ], [ 104.533511695271812, -5.53793654547454 ], [ 104.529808491527078, -5.544152936942621 ], [ 104.546377615102685, -5.558428020987914 ], [ 104.549847222345278, -5.566203579905249 ], [ 104.553480429360931, -5.572715489339352 ], [ 104.556610633171388, -5.586493812858479 ], [ 104.560243840581478, -5.589624016829316 ], [ 104.566062544991368, -5.602663985369494 ], [ 104.610969421797662, -5.650494714283803 ], [ 104.636773605224192, -5.682316884195137 ], [ 104.647985128191934, -5.700216816171376 ], [ 104.649733283440085, -5.709800310584393 ], [ 104.6497332831281, -5.713182015772213 ], [ 104.622679639724751, -5.713182016082661 ], [ 104.624244742066338, -5.704602001058538 ], [ 104.628085461671262, -5.694143307767688 ], [ 104.612273036576482, -5.671842039467543 ], [ 104.590427687824132, -5.654127921852826 ], [ 104.57102158162391, -5.620468816780811 ], [ 104.534780454371287, -5.616772088852058 ], [ 104.523045080748531, -5.603150837901008 ], [ 104.51872696368153, -5.600020634667244 ], [ 104.509392508217402, -5.610855187944547 ], [ 104.502754848336011, -5.603150838472698 ], [ 104.498436731189059, -5.600020634332548 ], [ 104.492506594361785, -5.606903759217399 ], [ 104.48584632038235, -5.601529543278841 ], [ 104.492810522490458, -5.582565397847133 ], [ 104.483486271189847, -5.57453209262453 ], [ 104.489501058509887, -5.569350038178749 ], [ 104.488664765248231, -5.558941964250158 ], [ 104.481315686129761, -5.559532482721838 ], [ 104.477266306259864, -5.537333332905565 ], [ 104.48235913089087, -5.534072992402775 ], [ 104.485349638046372, -5.521781492410757 ], [ 104.47229602104963, -5.512341474473815 ], [ 104.462032919143098, -5.519369648374734 ], [ 104.460357779131826, -5.530569922017603 ], [ 104.455866451816007, -5.528297838772732 ], [ 104.452458326280251, -5.521560847508572 ], [ 104.444585293383383, -5.519288764140208 ], [ 104.443449251432369, -5.517043100309065 ], [ 104.448118434241422, -5.504328474047365 ], [ 104.453967054120213, -5.440672858655502 ], [ 104.459707919037257, -5.415402975580358 ], [ 104.473220679604026, -5.407863721769156 ], [ 104.499247391741903, -5.414986763752337 ], [ 104.527467469949812, -5.40726342462627 ] ], [ [ 104.510519390304978, -5.494280703044142 ], [ 104.534755298365042, -5.496752867534376 ], [ 104.536320400046037, -5.494936263909845 ], [ 104.546242240363043, -5.486388112761844 ], [ 104.549847221881308, -5.476172329295404 ], [ 104.538552106043468, -5.455927840555105 ], [ 104.51172242225762, -5.458083642231106 ], [ 104.502754848229557, -5.473137149010249 ], [ 104.510519390304978, -5.494280703044142 ] ], [ [ 104.563686847890907, -5.481428638237122 ], [ 104.582099174854378, -5.483226046488196 ], [ 104.580069537737472, -5.466998932271891 ], [ 104.567470032800173, -5.468566124292908 ], [ 104.563686847890907, -5.481428638237122 ] ] ], [ [ [ 104.582480349292638, -5.372815887035113 ], [ 104.578717469056286, -5.381774883009581 ], [ 104.567191130713852, -5.378816922296569 ], [ 104.572876911549329, -5.366866838113221 ], [ 104.582480349292638, -5.372815887035113 ] ] ], [ [ [ 104.467121190100187, -5.145055502235818 ], [ 104.471894270339632, -5.150206951037187 ], [ 104.478756406120937, -5.149934964141274 ], [ 104.489573067660032, -5.170376554275952 ], [ 104.488826378853474, -5.189215142280262 ], [ 104.494562729273994, -5.213297402933085 ], [ 104.499311853459929, -5.217697706418329 ], [ 104.512314334496125, -5.237833111044615 ], [ 104.532311617324041, -5.238625737687006 ], [ 104.540021256560934, -5.231482376949099 ], [ 104.553979021376648, -5.201907147729061 ], [ 104.572541352357916, -5.195401121557447 ], [ 104.605682488372437, -5.201728403429366 ], [ 104.616071572716834, -5.234542816842981 ], [ 104.633628463189737, -5.235238704026119 ], [ 104.646156011350044, -5.228609751435465 ], [ 104.665195313056259, -5.241711073658155 ], [ 104.698832487339615, -5.248133055740237 ], [ 104.718002494267949, -5.254852063777196 ], [ 104.74010445431918, -5.255728102468576 ], [ 104.785001500838945, -5.253270075949483 ], [ 104.78700201004996, -5.254651285977323 ], [ 104.793908044823553, -5.264653738533865 ], [ 104.804030715075925, -5.271642825862227 ], [ 104.803200717786737, -5.275345294520622 ], [ 104.805291733716317, -5.280323719852873 ], [ 104.802282121158512, -5.290319825703284 ], [ 104.785738566299869, -5.303276033842981 ], [ 104.759855433175133, -5.314825567660124 ], [ 104.759502845561045, -5.319213331796919 ], [ 104.760023084405191, -5.325688114718691 ], [ 104.742154241800549, -5.354316818366345 ], [ 104.743999638369459, -5.377283503427152 ], [ 104.739020425877669, -5.404745902657614 ], [ 104.739891936468453, -5.415591937365157 ], [ 104.739212613145511, -5.424046200763942 ], [ 104.740842963868545, -5.444336433807572 ], [ 104.738771787944913, -5.470112830287763 ], [ 104.756436110977958, -5.499069276067907 ], [ 104.789545203101383, -5.513843158168095 ], [ 104.791340805497612, -5.536189860828951 ], [ 104.776421486754728, -5.549043551099813 ], [ 104.771726181336888, -5.554493362166708 ], [ 104.756702267195934, -5.567437199374281 ], [ 104.754566151902509, -5.574532092643 ], [ 104.752565643367035, -5.573150896239551 ], [ 104.74783303075229, -5.566296358121391 ], [ 104.739038847114358, -5.563005779724865 ], [ 104.728741870707779, -5.556300523203062 ], [ 104.729585568094336, -5.552536868608007 ], [ 104.727512508517393, -5.544096744050777 ], [ 104.729016309107067, -5.542218838935935 ], [ 104.740877846311548, -5.532720279219913 ], [ 104.738365819044233, -5.512524605126451 ], [ 104.710071823280629, -5.508775889683792 ], [ 104.697077159822527, -5.51704310064167 ], [ 104.673405221828588, -5.517043100070548 ], [ 104.674939672272643, -5.511814140120165 ], [ 104.686733380620424, -5.506699321306566 ], [ 104.695304313532247, -5.486936577493652 ], [ 104.698611610633833, -5.46108855913138 ], [ 104.702306119264961, -5.444492834971447 ], [ 104.705375021591479, -5.416812371803877 ], [ 104.695714513566386, -5.364574966253199 ], [ 104.677026741404887, -5.338608550081157 ], [ 104.648192614893318, -5.332214652286013 ], [ 104.641938942070169, -5.339743173155296 ], [ 104.637897314560576, -5.339331218718369 ], [ 104.618267003820719, -5.341332113760973 ], [ 104.610414430712126, -5.331878731312711 ], [ 104.611016017682275, -5.325976743052303 ], [ 104.610660204697979, -5.322485902399537 ], [ 104.616066799806532, -5.31304601284534 ], [ 104.629313739617132, -5.305842912577795 ], [ 104.641169884323986, -5.312633387318539 ], [ 104.644792720187738, -5.312264132865916 ], [ 104.650980550333585, -5.319713369051 ], [ 104.661847560838737, -5.31348941807158 ], [ 104.661385785934243, -5.308959080296198 ], [ 104.667250183315744, -5.298719856746119 ], [ 104.68291100461812, -5.291927885168711 ], [ 104.689666159395088, -5.283795635848064 ], [ 104.688010215224267, -5.267549327069191 ], [ 104.673068578923463, -5.261069268894787 ], [ 104.653937814686515, -5.263019234489004 ], [ 104.634672011109487, -5.254804527467714 ], [ 104.611994650803453, -5.248149813364709 ], [ 104.594091545320524, -5.237895999937423 ], [ 104.563785379192495, -5.233381787266848 ], [ 104.532627593704049, -5.246667092246129 ], [ 104.499247391449614, -5.243264694919358 ], [ 104.477266305865371, -5.245505198632098 ], [ 104.468812042130409, -5.244643466087618 ], [ 104.465430337495206, -5.244988159332485 ], [ 104.451903515329249, -5.243609387436241 ], [ 104.424849872240969, -5.246366930161617 ], [ 104.406356195882694, -5.244481891731009 ], [ 104.38780751351814, -5.231132589219329 ], [ 104.382578553586399, -5.229598138224643 ], [ 104.379432321506414, -5.221412972490984 ], [ 104.376474981072136, -5.197637316460368 ], [ 104.397359776506988, -5.182381425763385 ], [ 104.430670628079568, -5.172857350108433 ], [ 104.448721195124136, -5.150316338691574 ], [ 104.467121190100187, -5.145055502235818 ] ], [ [ 104.481191482909111, -5.21130840103717 ], [ 104.465739980182008, -5.2158944028204 ], [ 104.469164424061617, -5.231169999367097 ], [ 104.480648011436244, -5.232979843417475 ], [ 104.486270736791113, -5.220938387854396 ], [ 104.481191482909111, -5.21130840103717 ] ], [ [ 104.43481033527479, -5.21997151902848 ], [ 104.420056757201706, -5.214536865343769 ], [ 104.414861157460621, -5.230295870369942 ], [ 104.429922430309091, -5.232979843075436 ], [ 104.43481033527479, -5.21997151902848 ] ], [ [ 104.719656245522884, -5.481270352594565 ], [ 104.73089421368222, -5.483226045958655 ], [ 104.736841740244159, -5.473877541444569 ], [ 104.730751099725907, -5.464813718326528 ], [ 104.718504698621189, -5.472012458783905 ], [ 104.719656245522884, -5.481270352594565 ] ] ], [ [ [ 104.77189460594127, -5.181731591329395 ], [ 104.778238089915973, -5.19578108331262 ], [ 104.744623620647232, -5.192987059101457 ], [ 104.725821656343342, -5.194497818585059 ], [ 104.717543067486105, -5.193832620707979 ], [ 104.703646835563262, -5.186079423840249 ], [ 104.698893763782067, -5.170292535020741 ], [ 104.695260556349908, -5.16039893366609 ], [ 104.693695454206775, -5.155200618375146 ], [ 104.699633589102078, -5.153676738785591 ], [ 104.709222759340008, -5.147055990966096 ], [ 104.711985204136653, -5.143055012650531 ], [ 104.713985686492592, -5.141673796939007 ], [ 104.73687092050983, -5.140810803579698 ], [ 104.746942505277318, -5.130668457243525 ], [ 104.748662977190506, -5.122243786890579 ], [ 104.751184446993676, -5.121383563791504 ], [ 104.752963124028241, -5.127604599161938 ], [ 104.769222668666657, -5.137162390310571 ], [ 104.789747426764734, -5.145811104341853 ], [ 104.791211184332013, -5.157579083117765 ], [ 104.77189460594127, -5.181731591329395 ] ] ] ] } },
{ "type": "Feature", "properties": { "gridcode": 4, "Shape_Leng": 303132.76542399998, "Shape_Area": 566172630.17900002, "Ket": "1501 - 2000", "Klasifikas": "Kering", "bobotCH": 2 }, "geometry": { "type": "MultiPolygon", "coordinates": [ [ [ [ 104.48235913089087, -5.534072992402775 ], [ 104.477266306259864, -5.537333332905565 ], [ 104.469121685450332, -5.531951118544859 ], [ 104.460357779131826, -5.530569922017603 ], [ 104.462032919143098, -5.519369648374734 ], [ 104.47229602104963, -5.512341474473815 ], [ 104.485349638046372, -5.521781492410757 ], [ 104.48235913089087, -5.534072992402775 ] ] ], [ [ [ 104.729016309107067, -5.542218838935935 ], [ 104.727512508517393, -5.544096744050777 ], [ 104.723695396320807, -5.541150445040715 ], [ 104.710260010886898, -5.523744177916192 ], [ 104.698550309081455, -5.518951656495138 ], [ 104.697077159822527, -5.51704310064167 ], [ 104.710071823280629, -5.508775889683792 ], [ 104.738365819044233, -5.512524605126451 ], [ 104.740877846311548, -5.532720279219913 ], [ 104.729016309107067, -5.542218838935935 ] ] ], [ [ [ 104.406356195882694, -5.244481891731009 ], [ 104.424849872240969, -5.246366930161617 ], [ 104.451903515329249, -5.243609387436241 ], [ 104.465430337495206, -5.244988159332485 ], [ 104.468812042130409, -5.244643466087618 ], [ 104.477266305865371, -5.245505198632098 ], [ 104.499247391449614, -5.243264694919358 ], [ 104.532627593704049, -5.246667092246129 ], [ 104.563785379192495, -5.233381787266848 ], [ 104.594091545320524, -5.237895999937423 ], [ 104.611994650803453, -5.248149813364709 ], [ 104.634672011109487, -5.254804527467714 ], [ 104.653937814686515, -5.263019234489004 ], [ 104.673068578923463, -5.261069268894787 ], [ 104.688010215224267, -5.267549327069191 ], [ 104.689666159395088, -5.283795635848064 ], [ 104.68291100461812, -5.291927885168711 ], [ 104.667250183315744, -5.298719856746119 ], [ 104.661385785934243, -5.308959080296198 ], [ 104.661847560838737, -5.31348941807158 ], [ 104.650980550333585, -5.319713369051 ], [ 104.644792720187738, -5.312264132865916 ], [ 104.641169884323986, -5.312633387318539 ], [ 104.629313739617132, -5.305842912577795 ], [ 104.616066799806532, -5.31304601284534 ], [ 104.610660204697979, -5.322485902399537 ], [ 104.611016017682275, -5.325976743052303 ], [ 104.610414430712126, -5.331878731312711 ], [ 104.618267003820719, -5.341332113760973 ], [ 104.637897314560576, -5.339331218718369 ], [ 104.641938942070169, -5.339743173155296 ], [ 104.648192614893318, -5.332214652286013 ], [ 104.677026741404887, -5.338608550081157 ], [ 104.695714513566386, -5.364574966253199 ], [ 104.705375021591479, -5.416812371803877 ], [ 104.702306119264961, -5.444492834971447 ], [ 104.698611610633833, -5.46108855913138 ], [ 104.695304313532247, -5.486936577493652 ], [ 104.686733380620424, -5.506699321306566 ], [ 104.674939672272643, -5.511814140120165 ], [ 104.673405221828588, -5.517043100070548 ], [ 104.65687541786798, -5.514975613941369 ], [ 104.65311498915726, -5.510279689527247 ], [ 104.65154988755026, -5.508463086131604 ], [ 104.649325121567301, -5.480774856572193 ], [ 104.640047439256264, -5.458744905169386 ], [ 104.603954508776951, -5.454607300945566 ], [ 104.590679189708553, -5.45097409299332 ], [ 104.570011704169573, -5.446278788178611 ], [ 104.557548218441895, -5.43932497016812 ], [ 104.54404902838904, -5.415911216727092 ], [ 104.527467469949812, -5.40726342462627 ], [ 104.499247391741903, -5.414986763752337 ], [ 104.473220679604026, -5.407863721769156 ], [ 104.459707919037257, -5.415402975580358 ], [ 104.453967054120213, -5.440672858655502 ], [ 104.448118434241422, -5.504328474047365 ], [ 104.443449251432369, -5.517043100309065 ], [ 104.432284285451772, -5.506315979881133 ], [ 104.424883683389481, -5.495028190571847 ], [ 104.417716315799581, -5.484454556566476 ], [ 104.418353520634525, -5.453231470086592 ], [ 104.390136667353303, -5.430860335029404 ], [ 104.369701772151217, -5.403293805953064 ], [ 104.347239732634037, -5.379914934206494 ], [ 104.33689171220658, -5.369972737949891 ], [ 104.330947016674131, -5.357719370849503 ], [ 104.31328740952253, -5.351988774328449 ], [ 104.328721251227151, -5.330927136764152 ], [ 104.335234677709195, -5.324147858843404 ], [ 104.351177993959809, -5.340741930712229 ], [ 104.374090472084447, -5.329625972163826 ], [ 104.370715881630332, -5.318988765755184 ], [ 104.35749238204474, -5.306283815128255 ], [ 104.401144115860347, -5.302014486323235 ], [ 104.394463866348588, -5.288898354958775 ], [ 104.391066635113063, -5.285362466598154 ], [ 104.36622406356075, -5.281318323795309 ], [ 104.374158108330448, -5.261758151297347 ], [ 104.379941801977424, -5.23213148883907 ], [ 104.382578553586399, -5.229598138224643 ], [ 104.38780751351814, -5.231132589219329 ], [ 104.406356195882694, -5.244481891731009 ] ], [ [ 104.584118440286701, -5.252896615506189 ], [ 104.548282120505633, -5.255776103983784 ], [ 104.519088878672804, -5.253430386552286 ], [ 104.495013345336744, -5.258681728302261 ], [ 104.467702304382584, -5.256487265092342 ], [ 104.444570973917394, -5.269393059489104 ], [ 104.415295641911982, -5.267040749911783 ], [ 104.411448807623927, -5.292285440000079 ], [ 104.401303691477764, -5.326156494342905 ], [ 104.408848975311301, -5.345685718968772 ], [ 104.440801076440977, -5.355305772086806 ], [ 104.460799932553073, -5.389992943685496 ], [ 104.478569998503374, -5.391420788055741 ], [ 104.499247391900269, -5.38576176145178 ], [ 104.516030167726669, -5.390354897188578 ], [ 104.531373592711532, -5.391919998928346 ], [ 104.532938694683736, -5.390103395555061 ], [ 104.542675623645152, -5.381714535488462 ], [ 104.551481185431783, -5.343825977280243 ], [ 104.557521385871851, -5.310712911932094 ], [ 104.572334459170278, -5.302448190396501 ], [ 104.591989022463835, -5.29798302458329 ], [ 104.600842469320625, -5.285496435168251 ], [ 104.600562689891291, -5.282014572222322 ], [ 104.60129993535989, -5.272839214115573 ], [ 104.584118440286701, -5.252896615506189 ] ], [ [ 104.567191130713852, -5.378816922296569 ], [ 104.578717469056286, -5.381774883009581 ], [ 104.582480349292638, -5.372815887035113 ], [ 104.572876911549329, -5.366866838113221 ], [ 104.567191130713852, -5.378816922296569 ] ], [ [ 104.662235056758803, -5.404907000131842 ], [ 104.651237083408091, -5.413714031686144 ], [ 104.647264678594354, -5.41867464203911 ], [ 104.623848293193376, -5.408566368447503 ], [ 104.611309909291535, -5.418606941871896 ], [ 104.61034283467616, -5.426381856406396 ], [ 104.618931234387333, -5.437106784265556 ], [ 104.630074411754975, -5.438492831822681 ], [ 104.646210347264272, -5.4290076883778 ], [ 104.664905497368281, -5.443959618919574 ], [ 104.676786926828527, -5.44602728664279 ], [ 104.67829072708922, -5.444149380856129 ], [ 104.691817549198404, -5.433317278455046 ], [ 104.687949454616827, -5.408105496684969 ], [ 104.662235056758803, -5.404907000131842 ] ] ], [ [ [ 104.748662977190506, -5.122243786890579 ], [ 104.746942505277318, -5.130668457243525 ], [ 104.73687092050983, -5.140810803579698 ], [ 104.713985686492592, -5.141673796939007 ], [ 104.71816436524972, -5.127058657463946 ], [ 104.729934543546037, -5.122534414821499 ], [ 104.736088498046513, -5.123299872926173 ], [ 104.747396179060971, -5.11665290290244 ], [ 104.751184446993676, -5.121383563791504 ], [ 104.748662977190506, -5.122243786890579 ] ] ] ] } },
{ "type": "Feature", "properties": { "gridcode": 5, "Shape_Leng": 88601.498575299993, "Shape_Area": 258200170.71300003, "Ket": "< 1500", "Klasifikas": "Sangat Kering", "bobotCH": 1 }, "geometry": { "type": "MultiPolygon", "coordinates": [ [ [ [ 104.687949454616827, -5.408105496684969 ], [ 104.691817549198404, -5.433317278455046 ], [ 104.67829072708922, -5.444149380856129 ], [ 104.676786926828527, -5.44602728664279 ], [ 104.664905497368281, -5.443959618919574 ], [ 104.646210347264272, -5.4290076883778 ], [ 104.630074411754975, -5.438492831822681 ], [ 104.618931234387333, -5.437106784265556 ], [ 104.61034283467616, -5.426381856406396 ], [ 104.611309909291535, -5.418606941871896 ], [ 104.623848293193376, -5.408566368447503 ], [ 104.647264678594354, -5.41867464203911 ], [ 104.651237083408091, -5.413714031686144 ], [ 104.662235056758803, -5.404907000131842 ], [ 104.687949454616827, -5.408105496684969 ] ] ], [ [ [ 104.584118440286701, -5.252896615506189 ], [ 104.60129993535989, -5.272839214115573 ], [ 104.600562689891291, -5.282014572222322 ], [ 104.600842469320625, -5.285496435168251 ], [ 104.591989022463835, -5.29798302458329 ], [ 104.572334459170278, -5.302448190396501 ], [ 104.557521385871851, -5.310712911932094 ], [ 104.551481185431783, -5.343825977280243 ], [ 104.542675623645152, -5.381714535488462 ], [ 104.532938694683736, -5.390103395555061 ], [ 104.531373592711532, -5.391919998928346 ], [ 104.516030167726669, -5.390354897188578 ], [ 104.499247391900269, -5.38576176145178 ], [ 104.478569998503374, -5.391420788055741 ], [ 104.460799932553073, -5.389992943685496 ], [ 104.440801076440977, -5.355305772086806 ], [ 104.408848975311301, -5.345685718968772 ], [ 104.401303691477764, -5.326156494342905 ], [ 104.411448807623927, -5.292285440000079 ], [ 104.415295641911982, -5.267040749911783 ], [ 104.444570973917394, -5.269393059489104 ], [ 104.467702304382584, -5.256487265092342 ], [ 104.495013345336744, -5.258681728302261 ], [ 104.519088878672804, -5.253430386552286 ], [ 104.548282120505633, -5.255776103983784 ], [ 104.584118440286701, -5.252896615506189 ] ] ] ] } }
]
}
